ONEWEB-0136             
1 47282U 20100AA  24228.45696643  .00000933  00000+0  25584-2 0  9997
2 47282  87.8937 124.2248 0001576  89.0602 271.0707 13.12440506176682
ONEWEB-0137             
1 47283U 20100AB  24228.94843971  .00000149  00000+0  38001-3 0  9998
2 47283  87.8930 124.1492 0001945  79.6787 280.4561 13.12443284176650
ONEWEB-0138             
1 47284U 20100AC  24229.15606984  .00000442  00000+0  11923-2 0  9993
2 47284  87.8928 124.1202 0001731  80.7458 279.3866 13.12443290176762
ONEWEB-0139             
1 47285U 20100AD  24229.19513046 -.00000310  00000+0 -89774-3 0  9990
2 47285  87.8933 124.0845 0001838  76.7715 283.3619 13.12445633176843
ONEWEB-0140             
1 47286U 20100AE  24229.14957894  .00000306  00000+0  81569-3 0  9996
2 47286  87.8930 124.0971 0001733  79.7580 280.3744 13.12444425176796
ONEWEB-0141             
1 47287U 20100AF  24229.19485650 -.00000300  00000+0 -86954-3 0  9997
2 47287  87.8932 124.1004 0002026  75.7098 284.4255 13.12443632176794
ONEWEB-0142             
1 47288U 20100AG  24229.16334389  .00000501  00000+0  13585-2 0  9997
2 47288  87.8931 124.0877 0002019  83.8562 276.2797 13.12439877176784
ONEWEB-0143             
1 47289U 20100AH  24229.19337360 -.00000267  00000+0 -77866-3 0  9997
2 47289  87.8933 124.1030 0001837  74.2620 285.8711 13.12443213176764
